{"type": "FeatureCollection", "features": [ {"type": "Feature", "properties": {"norad_id": 58662, "name": "TIANMU-1 21", "group": "weather", "lat": -19.50040984125969, "lon": 111.68852904019445, "alt_km": 477.8662477081243, "timestamp": "2025-12-21T14:40:47.553611+00:00", "meta": {"OBJECT_NAME": "TIANMU-1 21", "OBJECT_ID": "2023-208C", "EPOCH": "2025-12-21T06:55:34.519872", "MEAN_MOTION": 15.317198, "ECCENTRICITY": 0.00062403, "INCLINATION": 97.4382, "RA_OF_ASC_NODE": 108.7125, "ARG_OF_PERICENTER": 224.3197, "MEAN_ANOMALY": 135.7545, "EPHEMERIS_TYPE": 0, "CLASSIFICATION_TYPE": "U", "NORAD_CAT_ID": 58662, "ELEMENT_SET_NO": 999, "REV_AT_EPOCH": 11030, "BSTAR": 0.00028524143, "MEAN_MOTION_DOT": 8.663e-05, "MEAN_MOTION_DDOT": 0}, "tle": {"line1": "1 58662U 23208C   25355.28859398  .00008663  00000+0  28524-3 0  9990", "line2": "2 58662  97.4382 108.7125 0006240 224.3197 135.7545 15.31719800110306"}}, "geometry": {"type": "Point", "coordinates": [111.68852904019445, -19.50040984125969]}}, {"type": "Feature", "properties": {"norad_id": 58663, "name": "TIANMU-1 22", "group": "weather", "lat": 43.33104420481134, "lon": -66.23252732836245, "alt_km": 479.4931006916222, "timestamp": "2025-12-21T14:40:47.553622+00:00", "meta": {"OBJECT_NAME": "TIANMU-1 22", "OBJECT_ID": "2023-208D", "EPOCH": "2025-12-21T06:13:33.494016", "MEAN_MOTION": 15.27737285, "ECCENTRICITY": 0.00027806, "INCLINATION": 97.4389, "RA_OF_ASC_NODE": 106.3357, "ARG_OF_PERICENTER": 241.7022, "MEAN_ANOMALY": 118.3937, "EPHEMERIS_TYPE": 0, "CLASSIFICATION_TYPE": "U", "NORAD_CAT_ID": 58663, "ELEMENT_SET_NO": 999, "REV_AT_EPOCH": 11013, "BSTAR": 0.00025814722, "MEAN_MOTION_DOT": 6.921e-05, "MEAN_MOTION_DDOT": 0}, "tle": {"line1": "1 58663U 23208D   25355.25941544  .00006921  00000+0  25815-3 0  9998", "line2": "2 58663  97.4389 106.3357 0002780 241.7022 118.3937 15.27737285110135"}}, "geometry": {"type": "Point", "coordinates": [-66.23252732836245, 43.33104420481134]}}, {"type": "Feature", "properties": {"norad_id": 58700, "name": "TIANMU-1 15", "group": "weather", "lat": 16.41364482839109, "lon": -0.7395239998840488, "alt_km": 492.919190178377, "timestamp": "2025-12-21T14:40:47.553635+00:00", "meta": {"OBJECT_NAME": "TIANMU-1 15", "OBJECT_ID": "2024-004A", "EPOCH": "2025-12-21T06:05:19.438944", "MEAN_MOTION": 15.2451044, "ECCENTRICITY": 0.00059653, "INCLINATION": 97.4622, "RA_OF_ASC_NODE": 176.6912, "ARG_OF_PERICENTER": 253.9165, "MEAN_ANOMALY": 106.1416, "EPHEMERIS_TYPE": 0, "CLASSIFICATION_TYPE": "U", "NORAD_CAT_ID": 58700, "ELEMENT_SET_NO": 999, "REV_AT_EPOCH": 10864, "BSTAR": 0.00022718254, "MEAN_MOTION_DOT": 5.516e-05, "MEAN_MOTION_DDOT": 0}, "tle": {"line1": "1 58700U 24004A   25355.25369721  .00005516  00000+0  22718-3 0  9994", "line2": "2 58700  97.4622 176.6912 0005965 253.9165 106.1416 15.24510440108644"}}, "geometry": {"type": "Point", "coordinates": [-0.7395239998840488, 16.41364482839109]}}, {"type": "Feature", "properties": {"norad_id": 58701, "name": "TIANMU-1 16", "group": "weather", "lat": -64.75263372205168, "lon": -19.69491318498285, "alt_km": 496.4808093408219, "timestamp": "2025-12-21T14:40:47.553645+00:00", "meta": {"OBJECT_NAME": "TIANMU-1 16", "OBJECT_ID": "2024-004B", "EPOCH": "2025-12-21T05:43:42.728736", "MEAN_MOTION": 15.24537385, "ECCENTRICITY": 0.00043357, "INCLINATION": 97.4561, "RA_OF_ASC_NODE": 176.058, "ARG_OF_PERICENTER": 257.6375, "MEAN_ANOMALY": 102.4377, "EPHEMERIS_TYPE": 0, "CLASSIFICATION_TYPE": "U", "NORAD_CAT_ID": 58701, "ELEMENT_SET_NO": 999, "REV_AT_EPOCH": 10864, "BSTAR": 0.0002201028, "MEAN_MOTION_DOT": 5.346e-05, "MEAN_MOTION_DDOT": 0}, "tle": {"line1": "1 58701U 24004B   25355.23868899  .00005346  00000+0  22010-3 0  9999", "line2": "2 58701  97.4561 176.0580 0004335 257.6375 102.4377 15.24537385108648"}}, "geometry": {"type": "Point", "coordinates": [-19.69491318498285, -64.75263372205168]}}, {"type": "Feature", "properties": {"norad_id": 58702, "name": "TIANMU-1 17", "group": "weather", "lat": -28.152429243970175, "lon": -179.1355711291948, "alt_km": 497.27575014476224, "timestamp": "2025-12-21T14:40:47.553655+00:00", "meta": {"OBJECT_NAME": "TIANMU-1 17", "OBJECT_ID": "2024-004C", "EPOCH": "2025-12-21T06:55:41.507040", "MEAN_MOTION": 15.2458171, "ECCENTRICITY": 0.00035135, "INCLINATION": 97.4596, "RA_OF_ASC_NODE": 176.5222, "ARG_OF_PERICENTER": 258.9012, "MEAN_ANOMALY": 101.183, "EPHEMERIS_TYPE": 0, "CLASSIFICATION_TYPE": "U", "NORAD_CAT_ID": 58702, "ELEMENT_SET_NO": 999, "REV_AT_EPOCH": 10864, "BSTAR": 0.00021625416, "MEAN_MOTION_DOT": 5.257e-05, "MEAN_MOTION_DDOT": 0}, "tle": {"line1": "1 58702U 24004C   25355.28867485  .00005257  00000+0  21625-3 0  9997", "line2": "2 58702  97.4596 176.5222 0003513 258.9012 101.1830 15.24581710108645"}}, "geometry": {"type": "Point", "coordinates": [-179.1355711291948, -28.152429243970175]}}, {"type": "Feature", "properties": {"norad_id": 58703, "name": "TIANMU-1 18", "group": "weather", "lat": 61.754710896230975, "lon": 162.9207574938431, "alt_km": 488.01595650867876, "timestamp": "2025-12-21T14:40:47.553665+00:00", "meta": {"OBJECT_NAME": "TIANMU-1 18", "OBJECT_ID": "2024-004D", "EPOCH": "2025-12-21T06:31:46.880832", "MEAN_MOTION": 15.24566081, "ECCENTRICITY": 0.00028593, "INCLINATION": 97.4613, "RA_OF_ASC_NODE": 176.7028, "ARG_OF_PERICENTER": 256.6012, "MEAN_ANOMALY": 103.4907, "EPHEMERIS_TYPE": 0, "CLASSIFICATION_TYPE": "U", "NORAD_CAT_ID": 58703, "ELEMENT_SET_NO": 999, "REV_AT_EPOCH": 10864, "BSTAR": 0.00021646443, "MEAN_MOTION_DOT": 5.26e-05, "MEAN_MOTION_DDOT": 0}, "tle": {"line1": "1 58703U 24004D   25355.27207038  .00005260  00000+0  21646-3 0  9996", "line2": "2 58703  97.4613 176.7028 0002859 256.6012 103.4907 15.24566081108643"}}, "geometry": {"type": "Point", "coordinates": [162.9207574938431, 61.754710896230975]}}, {"type": "Feature", "properties": {"norad_id": 58990, "name": "INSAT-3DS", "group": "weather", "lat": -0.03201737934877037, "lon": 32.73640480752952, "alt_km": 35788.31393500432, "timestamp": "2025-12-21T14:40:47.553677+00:00", "meta": {"OBJECT_NAME": "INSAT-3DS", "OBJECT_ID": "2024-033A", "EPOCH": "2025-12-20T23:53:35.753280", "MEAN_MOTION": 1.0027214, "ECCENTRICITY": 0.00011004, "INCLINATION": 0.054, "RA_OF_ASC_NODE": 103.3228, "ARG_OF_PERICENTER": 169.8539, "MEAN_ANOMALY": 257.1496, "EPHEMERIS_TYPE": 0, "CLASSIFICATION_TYPE": "U", "NORAD_CAT_ID": 58990, "ELEMENT_SET_NO": 999, "REV_AT_EPOCH": 4528, "BSTAR": 0, "MEAN_MOTION_DOT": -1.33e-06, "MEAN_MOTION_DDOT": 0}, "tle": {"line1": "1 58990U 24033A   25354.99555270 -.00000133  00000+0  00000+0 0  9990", "line2": "2 58990   0.0540 103.3228 0001100 169.8539 257.1496  1.00272140 45284"}}, "geometry": {"type": "Point", "coordinates": [32.73640480752952, -0.03201737934877037]}}, {"type": "Feature", "properties": {"norad_id": 59051, "name": "METEOR-M2 4", "group": "weather", "lat": -40.82914525219537, "lon": 124.79875318537617, "alt_km": 825.4397163361255, "timestamp": "2025-12-21T14:40:47.553723+00:00", "meta": {"OBJECT_NAME": "METEOR-M2 4", "OBJECT_ID": "2024-039A", "EPOCH": "2025-12-21T06:53:20.848704", "MEAN_MOTION": 14.22402537, "ECCENTRICITY": 0.00065876, "INCLINATION": 98.6779, "RA_OF_ASC_NODE": 312.0623, "ARG_OF_PERICENTER": 333.2389, "MEAN_ANOMALY": 26.8449, "EPHEMERIS_TYPE": 0, "CLASSIFICATION_TYPE": "U", "NORAD_CAT_ID": 59051, "ELEMENT_SET_NO": 999, "REV_AT_EPOCH": 9397, "BSTAR": 2.6919993e-05, "MEAN_MOTION_DOT": 1.6e-07, "MEAN_MOTION_DDOT": 0}, "tle": {"line1": "1 59051U 24039A   25355.28704686  .00000016  00000+0  26920-4 0  9998", "line2": "2 59051  98.6779 312.0623 0006587 333.2389  26.8449 14.22402537 93973"}}, "geometry": {"type": "Point", "coordinates": [124.79875318537617, -40.82914525219537]}}, {"type": "Feature", "properties": {"norad_id": 60133, "name": "GOES 19", "group": "weather", "lat": -0.0002821931598539219, "lon": -124.5881990887097, "alt_km": 35786.465981640424, "timestamp": "2025-12-21T14:40:47.553741+00:00", "meta": {"OBJECT_NAME": "GOES 19", "OBJECT_ID": "2024-119A", "EPOCH": "2025-12-21T04:16:52.890816", "MEAN_MOTION": 1.00270672, "ECCENTRICITY": 0.00011267, "INCLINATION": 0.0058, "RA_OF_ASC_NODE": 105.2883, "ARG_OF_PERICENTER": 220.7602, "MEAN_ANOMALY": 112.9814, "EPHEMERIS_TYPE": 0, "CLASSIFICATION_TYPE": "U", "NORAD_CAT_ID": 60133, "ELEMENT_SET_NO": 999, "REV_AT_EPOCH": 517, "BSTAR": 0, "MEAN_MOTION_DOT": -2.25e-06, "MEAN_MOTION_DDOT": 0}, "tle": {"line1": "1 60133U 24119A   25355.17838994 -.00000225  00000+0  00000+0 0  9997", "line2": "2 60133   0.0058 105.2883 0001126 220.7602 112.9814  1.00270672  5178"}}, "geometry": {"type": "Point", "coordinates": [-124.5881990887097, -0.0002821931598539219]}}, {"type": "Feature", "properties": {"norad_id": 65815, "name": "FENGYUN 3H", "group": "weather", "lat": 20.296261847835527, "lon": -68.22134518702758, "alt_km": 825.5674041872535, "timestamp": "2025-12-21T14:40:47.553753+00:00", "meta": {"OBJECT_NAME": "FENGYUN 3H", "OBJECT_ID": "2025-219A", "EPOCH": "2025-12-21T06:07:38.642304", "MEAN_MOTION": 14.19906835, "ECCENTRICITY": 7.48e-05, "INCLINATION": 98.6597, "RA_OF_ASC_NODE": 294.6611, "ARG_OF_PERICENTER": 105.9255, "MEAN_ANOMALY": 254.2004, "EPHEMERIS_TYPE": 0, "CLASSIFICATION_TYPE": "U", "NORAD_CAT_ID": 65815, "ELEMENT_SET_NO": 999, "REV_AT_EPOCH": 1213, "BSTAR": 4.8788251e-05, "MEAN_MOTION_DOT": 6e-07, "MEAN_MOTION_DDOT": 0}, "tle": {"line1": "1 65815U 25219A   25355.25530836  .00000060  00000+0  48788-4 0  9990", "line2": "2 65815  98.6597 294.6611 0000748 105.9255 254.2004 14.19906835 12136"}}, "geometry": {"type": "Point", "coordinates": [-68.22134518702758, 20.296261847835527]}}]}